{"fetched_at":"2026-07-18T06:28:23.939Z","source":"https://celestrak.org/NORAD/elements/gp.php?NAME=RADARSAT&FORMAT=JSON","constellation":"radarsat-2","records":[{"OBJECT_NAME":"RADARSAT-2","OBJECT_ID":"2007-061A","EPOCH":"2026-07-17T23:09:30.333888","CLASSIFICATION_TYPE":"U","MEAN_MOTION":14.29983362,"ECCENTRICITY":0.00013063,"INCLINATION":98.578,"RA_OF_ASC_NODE":205.4582,"ARG_OF_PERICENTER":85.0388,"MEAN_ANOMALY":275.0943,"EPHEMERIS_TYPE":0,"NORAD_CAT_ID":32382,"ELEMENT_SET_NO":999,"REV_AT_EPOCH":97035,"BSTAR":-0.000032405164,"MEAN_MOTION_DOT":-0.00000127,"MEAN_MOTION_DDOT":0}]}
